ONEWEB-0240             
1 48785U 21045U   26032.11639384 -.00000074  00000+0 -23096-3 0  9997
2 48785  87.9003 286.3350 0001272  88.9122 271.2154 13.15550666226516
ONEWEB-0246             
1 48786U 21045V   26031.73057147 -.00000067  00000+0 -21312-3 0  9997
2 48786  87.9002 286.4214 0001474  73.4520 286.6772 13.15548428226330
ONEWEB-0210             
1 48787U 21045W   26031.93339409  .00000133  00000+0  31828-3 0  9999
2 48787  87.8997 286.3782 0001070  56.4459 303.6773 13.15549258226407
ONEWEB-0214             
1 48788U 21045X   26031.71392874 -.00000059  00000+0 -19118-3 0  9998
2 48788  87.9004 286.4165 0001427  61.4686 298.6588 13.15548448226348
ONEWEB-0221             
1 48789U 21045Y   26031.94923337 -.00000729  00000+0 -19715-2 0  9994
2 48789  87.9002 286.3809 0001394  80.2515 279.8773 13.15550975226462
ONEWEB-0213             
1 48790U 21045Z   26032.09025614  .00000088  00000+0  19891-3 0  9996
2 48790  87.8994 286.3572 0001226  73.0068 287.1197 13.15549189226543
ONEWEB-0212             
1 48791U 21045AA  26032.14333394  .00000231  00000+0  57980-3 0  9991
2 48791  87.8995 286.3408 0001579  80.3223 279.8086 13.15547045226542
ONEWEB-0227             
1 48792U 21045AB  26031.76226298  .00000150  00000+0  36424-3 0  9993
2 48792  87.8988 286.4216 0001453  80.0386 280.0909 13.15548440226448
ONEWEB-0226             
1 48793U 21045AC  26032.13620807  .00000129  00000+0  30881-3 0  9997
2 48793  87.8987 286.3572 0001283  71.1721 288.9549 13.15548383226462
ONEWEB-0224             
1 48794U 21045AD  26032.09975948  .00000002  00000+0 -28467-4 0  9991
2 48794  87.8993 286.4000 0001482 113.9931 246.1355 13.15548476226381
ONEWEB-0233             
1 48795U 21045AE  26031.95226742 -.00000112  00000+0 -33033-3 0  9994
2 48795  87.8990 286.4393 0001260  83.2924 276.8349 13.15548086226389
ONEWEB-0190             
1 48796U 21045AF  26032.09184502  .00000054  00000+0  10817-3 0  9996
2 48796  87.8990 286.3722 0000778  71.6761 288.4454 13.15549729226479
ONEWEB-0236             
1 48797U 21045AG  26032.10927224 -.00000075  00000+0 -23410-3 0  9993
2 48797  87.8990 286.3805 0001667  80.7632 279.3687 13.15548186226369
ONEWEB-0248             
1 48798U 21045AH  26031.74166142 -.00000073  00000+0 -22765-3 0  9997
2 48798  87.8999 286.4232 0001113  97.2790 262.8467 13.15547911226478
ONEWEB-0225             
1 48799U 21045AJ  26031.76385221  .00000112  00000+0  26316-3 0  9999
2 48799  87.8990 286.4381 0000922  73.2237 286.8994 13.15548457226480
ONEWEB-0215             
1 48800U 21045AK  26031.73374101 -.00000048  00000+0 -16091-3 0  9993
2 48800  87.9006 286.4117 0000849  88.1443 271.9785 13.15548523226354
