[{"OBJECT_NAME":"ONEWEB-0240","OBJECT_ID":"2021-045U","EPOCH":"2026-02-01T02:47:36.427776","MEAN_MOTION":13.15550666,"ECCENTRICITY":0.00012724,"INCLINATION":87.9003,"RA_OF_ASC_NODE":286.335,"ARG_OF_PERICENTER":88.9122,"MEAN_ANOMALY":271.2154,"EPHEMERIS_TYPE":0,"CLASSIFICATION_TYPE":"U","NORAD_CAT_ID":48785,"ELEMENT_SET_NO":999,"REV_AT_EPOCH":22651,"BSTAR":-0.00023096112,"MEAN_MOTION_DOT":-7.4e-7,"MEAN_MOTION_DDOT":0},{"OBJECT_NAME":"ONEWEB-0246","OBJECT_ID":"2021-045V","EPOCH":"2026-01-31T17:32:01.375008","MEAN_MOTION":13.15548428,"ECCENTRICITY":0.00014742,"INCLINATION":87.9002,"RA_OF_ASC_NODE":286.4214,"ARG_OF_PERICENTER":73.452,"MEAN_ANOMALY":286.6772,"EPHEMERIS_TYPE":0,"CLASSIFICATION_TYPE":"U","NORAD_CAT_ID":48786,"ELEMENT_SET_NO":999,"REV_AT_EPOCH":22633,"BSTAR":-0.00021312032,"MEAN_MOTION_DOT":-6.7e-7,"MEAN_MOTION_DDOT":0},{"OBJECT_NAME":"ONEWEB-0210","OBJECT_ID":"2021-045W","EPOCH":"2026-01-31T22:24:05.249376","MEAN_MOTION":13.15549258,"ECCENTRICITY":0.00010708,"INCLINATION":87.8997,"RA_OF_ASC_NODE":286.3782,"ARG_OF_PERICENTER":56.4459,"MEAN_ANOMALY":303.6773,"EPHEMERIS_TYPE":0,"CLASSIFICATION_TYPE":"U","NORAD_CAT_ID":48787,"ELEMENT_SET_NO":999,"REV_AT_EPOCH":22640,"BSTAR":0.00031827576,"MEAN_MOTION_DOT":1.33e-6,"MEAN_MOTION_DDOT":0},{"OBJECT_NAME":"ONEWEB-0214","OBJECT_ID":"2021-045X","EPOCH":"2026-01-31T17:08:03.443136","MEAN_MOTION":13.15548448,"ECCENTRICITY":0.00014278,"INCLINATION":87.9004,"RA_OF_ASC_NODE":286.4165,"ARG_OF_PERICENTER":61.4686,"MEAN_ANOMALY":298.6588,"EPHEMERIS_TYPE":0,"CLASSIFICATION_TYPE":"U","NORAD_CAT_ID":48788,"ELEMENT_SET_NO":999,"REV_AT_EPOCH":22634,"BSTAR":-0.00019117651,"MEAN_MOTION_DOT":-5.9e-7,"MEAN_MOTION_DDOT":0},{"OBJECT_NAME":"ONEWEB-0221","OBJECT_ID":"2021-045Y","EPOCH":"2026-01-31T22:46:53.763168","MEAN_MOTION":13.15550975,"ECCENTRICITY":0.00013948,"INCLINATION":87.9002,"RA_OF_ASC_NODE":286.3809,"ARG_OF_PERICENTER":80.2515,"MEAN_ANOMALY":279.8773,"EPHEMERIS_TYPE":0,"CLASSIFICATION_TYPE":"U","NORAD_CAT_ID":48789,"ELEMENT_SET_NO":999,"REV_AT_EPOCH":22646,"BSTAR":-0.0019714502,"MEAN_MOTION_DOT":-7.29e-6,"MEAN_MOTION_DDOT":0},{"OBJECT_NAME":"ONEWEB-0213","OBJECT_ID":"2021-045Z","EPOCH":"2026-02-01T02:09:58.130496","MEAN_MOTION":13.15549189,"ECCENTRICITY":0.00012266,"INCLINATION":87.8994,"RA_OF_ASC_NODE":286.3572,"ARG_OF_PERICENTER":73.0068,"MEAN_ANOMALY":287.1197,"EPHEMERIS_TYPE":0,"CLASSIFICATION_TYPE":"U","NORAD_CAT_ID":48790,"ELEMENT_SET_NO":999,"REV_AT_EPOCH":22654,"BSTAR":0.00019891452,"MEAN_MOTION_DOT":8.8e-7,"MEAN_MOTION_DDOT":0},{"OBJECT_NAME":"ONEWEB-0212","OBJECT_ID":"2021-045AA","EPOCH":"2026-02-01T03:26:24.052416","MEAN_MOTION":13.15547045,"ECCENTRICITY":0.00015796,"INCLINATION":87.8995,"RA_OF_ASC_NODE":286.3408,"ARG_OF_PERICENTER":80.3223,"MEAN_ANOMALY":279.8086,"EPHEMERIS_TYPE":0,"CLASSIFICATION_TYPE":"U","NORAD_CAT_ID":48791,"ELEMENT_SET_NO":999,"REV_AT_EPOCH":22654,"BSTAR":0.00057979692,"MEAN_MOTION_DOT":2.31e-6,"MEAN_MOTION_DDOT":0},{"OBJECT_NAME":"ONEWEB-0227","OBJECT_ID":"2021-045AB","EPOCH":"2026-01-31T18:17:39.521472","MEAN_MOTION":13.1554844,"ECCENTRICITY":0.00014531,"INCLINATION":87.8988,"RA_OF_ASC_NODE":286.4216,"ARG_OF_PERICENTER":80.0386,"MEAN_ANOMALY":280.0909,"EPHEMERIS_TYPE":0,"CLASSIFICATION_TYPE":"U","NORAD_CAT_ID":48792,"ELEMENT_SET_NO":999,"REV_AT_EPOCH":22644,"BSTAR":0.00036423802,"MEAN_MOTION_DOT":1.5e-6,"MEAN_MOTION_DDOT":0},{"OBJECT_NAME":"ONEWEB-0226","OBJECT_ID":"2021-045AC","EPOCH":"2026-02-01T03:16:08.377248","MEAN_MOTION":13.15548383,"ECCENTRICITY":0.00012838,"INCLINATION":87.8987,"RA_OF_ASC_NODE":286.3572,"ARG_OF_PERICENTER":71.1721,"MEAN_ANOMALY":288.9549,"EPHEMERIS_TYPE":0,"CLASSIFICATION_TYPE":"U","NORAD_CAT_ID":48793,"ELEMENT_SET_NO":999,"REV_AT_EPOCH":22646,"BSTAR":0.00030881334,"MEAN_MOTION_DOT":1.29e-6,"MEAN_MOTION_DDOT":0},{"OBJECT_NAME":"ONEWEB-0224","OBJECT_ID":"2021-045AD","EPOCH":"2026-02-01T02:23:39.219072","MEAN_MOTION":13.15548476,"ECCENTRICITY":0.00014825,"INCLINATION":87.8993,"RA_OF_ASC_NODE":286.4,"ARG_OF_PERICENTER":113.9931,"MEAN_ANOMALY":246.1355,"EPHEMERIS_TYPE":0,"CLASSIFICATION_TYPE":"U","NORAD_CAT_ID":48794,"ELEMENT_SET_NO":999,"REV_AT_EPOCH":22638,"BSTAR":-2.8466807e-5,"MEAN_MOTION_DOT":2.0e-8,"MEAN_MOTION_DDOT":0},{"OBJECT_NAME":"ONEWEB-0233","OBJECT_ID":"2021-045AE","EPOCH":"2026-01-31T22:51:15.905088","MEAN_MOTION":13.15548086,"ECCENTRICITY":0.00012605,"INCLINATION":87.899,"RA_OF_ASC_NODE":286.4393,"ARG_OF_PERICENTER":83.2924,"MEAN_ANOMALY":276.8349,"EPHEMERIS_TYPE":0,"CLASSIFICATION_TYPE":"U","NORAD_CAT_ID":48795,"ELEMENT_SET_NO":999,"REV_AT_EPOCH":22638,"BSTAR":-0.00033033492,"MEAN_MOTION_DOT":-1.12e-6,"MEAN_MOTION_DDOT":0},{"OBJECT_NAME":"ONEWEB-0190","OBJECT_ID":"2021-045AF","EPOCH":"2026-02-01T02:12:15.409728","MEAN_MOTION":13.15549729,"ECCENTRICITY":7.786e-5,"INCLINATION":87.899,"RA_OF_ASC_NODE":286.3722,"ARG_OF_PERICENTER":71.6761,"MEAN_ANOMALY":288.4454,"EPHEMERIS_TYPE":0,"CLASSIFICATION_TYPE":"U","NORAD_CAT_ID":48796,"ELEMENT_SET_NO":999,"REV_AT_EPOCH":22647,"BSTAR":0.00010816671,"MEAN_MOTION_DOT":5.4e-7,"MEAN_MOTION_DDOT":0},{"OBJECT_NAME":"ONEWEB-0236","OBJECT_ID":"2021-045AG","EPOCH":"2026-02-01T02:37:21.121536","MEAN_MOTION":13.15548186,"ECCENTRICITY":0.00016679,"INCLINATION":87.899,"RA_OF_ASC_NODE":286.3805,"ARG_OF_PERICENTER":80.7632,"MEAN_ANOMALY":279.3687,"EPHEMERIS_TYPE":0,"CLASSIFICATION_TYPE":"U","NORAD_CAT_ID":48797,"ELEMENT_SET_NO":999,"REV_AT_EPOCH":22636,"BSTAR":-0.00023409512,"MEAN_MOTION_DOT":-7.5e-7,"MEAN_MOTION_DDOT":0},{"OBJECT_NAME":"ONEWEB-0248","OBJECT_ID":"2021-045AH","EPOCH":"2026-01-31T17:47:59.546688","MEAN_MOTION":13.15547911,"ECCENTRICITY":0.00011137,"INCLINATION":87.8999,"RA_OF_ASC_NODE":286.4232,"ARG_OF_PERICENTER":97.279,"MEAN_ANOMALY":262.8467,"EPHEMERIS_TYPE":0,"CLASSIFICATION_TYPE":"U","NORAD_CAT_ID":48798,"ELEMENT_SET_NO":999,"REV_AT_EPOCH":22647,"BSTAR":-0.00022765435,"MEAN_MOTION_DOT":-7.3e-7,"MEAN_MOTION_DDOT":0},{"OBJECT_NAME":"ONEWEB-0225","OBJECT_ID":"2021-045AJ","EPOCH":"2026-01-31T18:19:56.830944","MEAN_MOTION":13.15548457,"ECCENTRICITY":9.226e-5,"INCLINATION":87.899,"RA_OF_ASC_NODE":286.4381,"ARG_OF_PERICENTER":73.2237,"MEAN_ANOMALY":286.8994,"EPHEMERIS_TYPE":0,"CLASSIFICATION_TYPE":"U","NORAD_CAT_ID":48799,"ELEMENT_SET_NO":999,"REV_AT_EPOCH":22648,"BSTAR":0.00026315869,"MEAN_MOTION_DOT":1.12e-6,"MEAN_MOTION_DDOT":0},{"OBJECT_NAME":"ONEWEB-0215","OBJECT_ID":"2021-045AK","EPOCH":"2026-01-31T17:36:35.223264","MEAN_MOTION":13.15548523,"ECCENTRICITY":8.492e-5,"INCLINATION":87.9006,"RA_OF_ASC_NODE":286.4117,"ARG_OF_PERICENTER":88.1443,"MEAN_ANOMALY":271.9785,"EPHEMERIS_TYPE":0,"CLASSIFICATION_TYPE":"U","NORAD_CAT_ID":48800,"ELEMENT_SET_NO":999,"REV_AT_EPOCH":22635,"BSTAR":-0.0001609068,"MEAN_MOTION_DOT":-4.8e-7,"MEAN_MOTION_DDOT":0}]
